{
  "type": "FeatureCollection",
  "features": [
    {
      "type": "Feature",
      "properties": {
        "name": "玉山主峰線 - 登山者軌跡 #1",
        "time": "2024-07-15",
        "source": "hikingapp",
        "difficulty": "difficult"
      },
      "geometry": {
        "type": "LineString",
        "coordinates": [
          [120.8567, 23.4652],
          [120.8571, 23.4658],
          [120.8578, 23.4665],
          [120.8582, 23.4671],
          [120.8590, 23.4680],
          [120.8598, 23.4688],
          [120.8605, 23.4695],
          [120.8612, 23.4702],
          [120.8620, 23.4710],
          [120.8627, 23.4718]
        ]
      }
    },
    {
      "type": "Feature",
      "properties": {
        "name": "玉山主峰線 - 登山者軌跡 #2",
        "time": "2024-08-03",
        "source": "garmin"
      },
      "geometry": {
        "type": "LineString",
        "coordinates": [
          [120.8565, 23.4650],
          [120.8570, 23.4657],
          [120.8577, 23.4664],
          [120.8584, 23.4672],
          [120.8591, 23.4681],
          [120.8599, 23.4689],
          [120.8606, 23.4696],
          [120.8614, 23.4704],
          [120.8621, 23.4711],
          [120.8628, 23.4719],
          [120.8635, 23.4727]
        ]
      }
    },
    {
      "type": "Feature",
      "properties": {
        "name": "玉山主峰線 - 登山者軌跡 #3",
        "time": "2024-09-20",
        "source": "strava"
      },
      "geometry": {
        "type": "LineString",
        "coordinates": [
          [120.8566, 23.4651],
          [120.8572, 23.4659],
          [120.8579, 23.4666],
          [120.8585, 23.4673],
          [120.8592, 23.4682],
          [120.8600, 23.4690],
          [120.8607, 23.4697],
          [120.8615, 23.4705],
          [120.8622, 23.4712],
          [120.8629, 23.4720]
        ]
      }
    },
    {
      "type": "Feature",
      "properties": {
        "name": "塔塔加 - 玉山主峰東段",
        "time": "2024-10-05",
        "source": "osm_trace"
      },
      "geometry": {
        "type": "LineString",
        "coordinates": [
          [120.8630, 23.4720],
          [120.8637, 23.4728],
          [120.8645, 23.4735],
          [120.8652, 23.4743],
          [120.8660, 23.4751],
          [120.8668, 23.4760],
          [120.8675, 23.4768]
        ]
      }
    },
    {
      "type": "Feature",
      "properties": {
        "name": "玉山主峰 - 攻頂段",
        "time": "2024-10-12",
        "source": "komoot"
      },
      "geometry": {
        "type": "LineString",
        "coordinates": [
          [120.8675, 23.4768],
          [120.8682, 23.4776],
          [120.8690, 23.4785],
          [120.8697, 23.4793],
          [120.8705, 23.4801],
          [120.8712, 23.4809]
        ]
      }
    }
  ]
}
